NORAD_CAT_ID,OBJECT_NAME,OBJECT_TYPE,EPOCH,MEAN_MOTION,ECCENTRICITY,INCLINATION,RA_OF_ASC_NODE,ARG_OF_PERICENTER,MEAN_ANOMALY,BSTAR,MEAN_MOTION_DOT,MEAN_MOTION_DDOT,TLE_LINE0,TLE_LINE1,TLE_LINE2,SEMIMAJOR_AXIS,PERIOD,APOGEE,PERIGEE,DECAYED
55943.0,STARLINK-5932,PAYLOAD,2023-11-17 12:23:57,14.98330222,0.0002378,70.0008,250.2851,277.0318,83.057,-1.0418e-05,-2.17e-06,0.0,0 STARLINK-5932,1 55943U 23037AF  23321.51664092 -.00000217  00000-0 -10418-4 0  9995,2 55943  70.0008 250.2851 0002378 277.0318  83.0570 14.98330222 37685,6950.192,96.107,573.71,570.404,0.0
55943.0,STARLINK-5932,PAYLOAD,2023-11-18 02:49:10,14.98329786,0.0002055,70.0013,248.7694,283.1452,76.9477,3.6761e-05,3.46e-06,0.0,0 STARLINK-5932,1 55943U 23037AF  23322.11748020  .00000346  00000-0  36761-4 0  9996,2 55943  70.0013 248.7694 0002055 283.1452  76.9477 14.98329786 38116,6950.194,96.107,573.487,570.63,0.0
55943.0,STARLINK-5932,PAYLOAD,2023-11-18 12:25:58,14.98332821,0.0002166,70.0011,247.7597,282.3363,77.7554,-4.7126e-05,-6.55e-06,0.0,0 STARLINK-5932,1 55943U 23037AF  23322.51803992 -.00000655  00000-0 -47126-4 0  9992,2 55943  70.0011 247.7597 0002166 282.3363  77.7554 14.98332821 37837,6950.184,96.107,573.555,570.544,0.0
55943.0,STARLINK-5932,PAYLOAD,2023-11-18 18:50:30,14.98324544,0.000206,70.0033,247.0893,275.7695,84.323,6.6596e-05,7.02e-06,0.0,0 STARLINK-5932,1 55943U 23037AF  23322.78508027  .00000702  00000-0  66596-4 0  9995,2 55943  70.0033 247.0893 0002060 275.7695  84.3230 14.98324544 37872,6950.21,96.107,573.507,570.643,0.0
55943.0,STARLINK-5932,PAYLOAD,2023-11-19 02:51:12,14.98314534,0.0002234,70.002,246.2453,262.1438,97.9467,-0.00010468,-1.341e-05,0.0,0 STARLINK-5932,1 55943U 23037AF  23323.11888987 -.00001341  00000-0 -10468-3 0  9997,2 55943  70.0020 246.2453 0002234 262.1438  97.9467 14.98314534 38263,6950.241,96.108,573.658,570.553,0.0
55943.0,STARLINK-5932,PAYLOAD,2023-11-19 04:27:14,14.98382838,0.0002504,70.003,246.0769,272.1128,87.9745,0.00068944,8.154e-05,0.0,0 STARLINK-5932,1 55943U 23037AF  23323.18558982  .00008154  00000-0  68944-3 0  9992,2 55943  70.0030 246.0769 0002504 272.1128  87.9745 14.98382838 38270,6950.029,96.104,573.635,570.154,0.0
55943.0,STARLINK-5932,PAYLOAD,2023-11-19 12:27:59,14.98327552,0.0002144,70.0037,245.2355,281.0184,79.0734,6.2514e-05,6.53e-06,0.0,0 STARLINK-5932,1 55943U 23037AF  23323.51943964  .00000653  00000-0  62514-4 0  9991,2 55943  70.0037 245.2355 0002144 281.0184  79.0734 14.98327552 37989,6950.2,96.107,573.556,570.575,0.0
55943.0,STARLINK-5932,PAYLOAD,2023-11-19 20:28:37,14.98356415,0.0001903,70.0029,244.3945,258.5106,101.584,0.00021823,2.514e-05,0.0,0 STARLINK-5932,1 55943U 23037AF  23323.85321736  .00002514  00000-0  21823-3 0  9990,2 55943  70.0029 244.3945 0001903 258.5106 101.5840 14.98356415 38373,6950.111,96.105,573.299,570.654,0.0
55943.0,STARLINK-5932,PAYLOAD,2023-11-19 22:04:47,14.98331573,0.0001977,70.0011,244.2261,253.7575,106.3367,-7.1613e-05,-9.47e-06,0.0,0 STARLINK-5932,1 55943U 23037AF  23323.91999813 -.00000947  00000-0 -71613-4 0  9997,2 55943  70.0011 244.2261 0001977 253.7575 106.3367 14.98331573 38041,6950.188,96.107,573.427,570.679,0.0
55943.0,STARLINK-5932,PAYLOAD,2023-11-20 02:53:08,14.98371844,0.0001771,70.0029,243.7215,242.1674,117.9306,0.00067601,7.991e-05,0.0,0 STARLINK-5932,1 55943U 23037AF  23324.12023557  .00007991  00000-0  67601-3 0  9999,2 55943  70.0029 243.7215 0001771 242.1674 117.9306 14.98371844 38414,6950.063,96.104,573.159,570.698,0.0
55943.0,STARLINK-5932,PAYLOAD,2023-11-20 04:29:17,14.98351971,0.000251,70.0028,243.5531,268.5895,91.4976,0.00041729,4.892e-05,0.0,0 STARLINK-5932,1 55943U 23037AF  23324.18701219  .00004892  00000-0  41729-3 0  9993,2 55943  70.0028 243.5531 0002510 268.5895  91.4976 14.98351971 38420,6950.125,96.106,573.734,570.245,0.0
55943.0,STARLINK-5932,PAYLOAD,2023-11-20 12:30:02,14.9829601,0.0002139,70.0027,242.7117,273.944,86.1475,-0.00019577,-2.426e-05,0.0,0 STARLINK-5932,1 55943U 23037AF  23324.52086207 -.00002426  00000-0 -19577-3 0  9993,2 55943  70.0027 242.7117 0002139 273.9440  86.1475 14.98296010 38138,6950.298,96.109,573.65,570.676,0.0
55943.0,STARLINK-5932,PAYLOAD,2023-11-20 18:54:32,14.98333025,0.0002585,70.001,242.038,273.8694,86.217,-9.8312e-05,-1.266e-05,0.0,0 STARLINK-5932,1 55943U 23037AF  23324.78787609 -.00001266  00000-0 -98312-4 0  9991,2 55943  70.0010 242.0380 0002585 273.8694  86.2170 14.98333025 38513,6950.184,96.107,573.845,570.252,0.0
55943.0,STARLINK-5932,PAYLOAD,2023-11-20 22:06:48,14.98331255,0.0002401,70.0011,241.7014,234.0092,126.0845,4.9348e-05,4.96e-06,0.0,0 STARLINK-5932,1 55943U 23037AF  23324.92139130  .00000496  00000-0  49348-4 0  9994,2 55943  70.0011 241.7014 0002401 234.0092 126.0845 14.98331255 38191,6950.189,96.107,573.723,570.385,0.0
55943.0,STARLINK-5932,PAYLOAD,2023-11-21 02:55:11,14.98339809,0.0002347,70.0016,241.1966,267.6683,92.4208,0.00048497,5.7e-05,0.0,0 STARLINK-5932,1 55943U 23037AF  23325.12165762  .00005700  00000-0  48497-3 0  9993,2 55943  70.0016 241.1966 0002347 267.6683  92.4208 14.98339809 38566,6950.163,96.106,573.659,570.396,0.0
55943.0,STARLINK-5932,PAYLOAD,2023-11-21 04:31:20,14.98328903,0.0002398,70.0012,241.028,275.9724,84.1162,9.9637e-05,1.096e-05,0.0,0 STARLINK-5932,1 55943U 23037AF  23325.18843360  .00001096  00000-0  99637-4 0  9993,2 55943  70.0012 241.0280 0002398 275.9724  84.1162 14.98328903 38575,6950.196,96.107,573.728,570.395,0.0
55943.0,STARLINK-5932,PAYLOAD,2023-11-21 20:32:41,14.98328803,0.000251,70.0015,239.3445,273.1255,86.9617,-3.4152e-05,-5e-06,0.0,0 STARLINK-5932,1 55943U 23037AF  23325.85603600 -.00000500  00000-0 -34152-4 0  9990,2 55943  70.0015 239.3445 0002510 273.1255  86.9617 14.98328803 38334,6950.197,96.107,573.806,570.317,0.0
55943.0,STARLINK-5932,PAYLOAD,2023-11-22 04:33:21,14.98334738,0.000231,70.0006,238.5035,273.2134,86.8761,0.00010245,1.13e-05,0.0,0 STARLINK-5932,1 55943U 23037AF  23326.18982862  .00001130  00000-0  10245-3 0  9991,2 55943  70.0006 238.5035 0002310 273.2134  86.8761 14.98334738 38721,6950.178,96.107,573.649,570.438,0.0
55943.0,STARLINK-5932,PAYLOAD,2023-11-22 18:58:34,14.98328376,0.0002412,70.0016,236.9899,267.0749,93.0134,1.5539e-05,9.3e-07,0.0,0 STARLINK-5932,1 55943U 23037AF  23326.79067331  .00000093  00000-0  15539-4 0  9992,2 55943  70.0016 236.9899 0002412 267.0749  93.0134 14.98328376 38813,6950.198,96.107,573.739,570.387,0.0
55943.0,STARLINK-5932,PAYLOAD,2023-11-22 20:34:42,14.98327432,0.0002485,70.0015,236.8217,264.0139,96.0737,4.1038e-06,-4.4e-07,0.0,0 STARLINK-5932,1 55943U 23037AF  23326.85743400 -.00000044  00000-0  41038-5 0  9998,2 55943  70.0015 236.8217 0002485 264.0139  96.0737 14.98327432 38482,6950.201,96.107,573.793,570.339,0.0
55943.0,STARLINK-5932,PAYLOAD,2023-11-23 04:35:22,14.98332964,0.000231,70.0009,235.979,278.1742,81.9155,8.6617e-05,9.41e-06,0.0,0 STARLINK-5932,1 55943U 23037AF  23327.19123005  .00000941  00000-0  86617-4 0  9995,2 55943  70.0009 235.9790 0002310 278.1742  81.9155 14.98332964 38533,6950.184,96.107,573.654,570.443,0.0
55943.0,STARLINK-5932,PAYLOAD,2023-11-23 19:00:35,14.98319888,0.0002942,70.0007,234.4645,278.416,81.6666,-7.9453e-05,-1.041e-05,0.0,0 STARLINK-5932,1 55943U 23037AF  23327.79208301 -.00001041  00000-0 -79453-4 0  9998,2 55943  70.0007 234.4645 0002942 278.4160  81.6666 14.98319888 38963,6950.224,96.108,574.134,570.044,0.0
55943.0,STARLINK-5932,PAYLOAD,2023-11-23 22:12:52,14.98311208,0.0002561,70.0003,234.1279,269.1681,90.9185,3.7268e-05,3.52e-06,0.0,0 STARLINK-5932,1 55943U 23037AF  23327.92560539  .00000352  00000-0  37268-4 0  9997,2 55943  70.0003 234.1279 0002561 269.1681  90.9185 14.98311208 38643,6950.251,96.108,573.896,570.336,0.0
55943.0,STARLINK-5932,PAYLOAD,2023-11-24 03:01:16,14.9832059,0.0002374,70.0008,233.6246,271.5814,88.5073,5.3277e-05,5.43e-06,0.0,0 STARLINK-5932,1 55943U 23037AF  23328.12588161  .00000543  00000-0  53277-4 0  9991,2 55943  70.0008 233.6246 0002374 271.5814  88.5073 14.98320590 38679,6950.222,96.108,573.737,570.437,0.0
55943.0,STARLINK-5932,PAYLOAD,2023-11-24 19:02:36,14.98325194,0.0002471,70.0013,231.9419,249.4305,110.659,5.007e-05,5.04e-06,0.0,0 STARLINK-5932,1 55943U 23037AF  23328.79347726  .00000504  00000-0  50070-4 0  9999,2 55943  70.0013 231.9419 0002471 249.4305 110.6590 14.98325194 39111,6950.208,96.107,573.79,570.355,0.0
55943.0,STARLINK-5932,PAYLOAD,2023-11-24 22:14:52,14.98330954,0.0002426,70.001,231.6045,240.7778,119.3139,0.00010063,1.108e-05,0.0,0 STARLINK-5932,1 55943U 23037AF  23328.92699234  .00001108  00000-0  10063-3 0  9996,2 55943  70.0010 231.6045 0002426 240.7778 119.3139 14.98330954 38796,6950.19,96.107,573.741,570.369,0.0
55943.0,STARLINK-5932,PAYLOAD,2023-11-25 03:03:16,14.98335148,0.0001897,70.0011,231.1005,271.8242,88.27,0.0001194,1.332e-05,0.0,0 STARLINK-5932,1 55943U 23037AF  23329.12727188  .00001332  00000-0  11940-3 0  9993,2 55943  70.0011 231.1005 0001897 271.8242  88.2700 14.98335148 39160,6950.177,96.107,573.36,570.724,0.0
55943.0,STARLINK-5932,PAYLOAD,2023-11-25 22:16:52,14.98333356,0.0002176,70.0007,229.0784,236.5968,123.4983,0.0001501,1.699e-05,0.0,0 STARLINK-5932,1 55943U 23037AF  23329.92838844  .00001699  00000-0  15010-3 0  9991,2 55943  70.0007 229.0784 0002176 236.5968 123.4983 14.98333356 38948,6950.183,96.107,573.56,570.535,0.0
55943.0,STARLINK-5932,PAYLOAD,2023-11-26 03:05:16,14.98343231,0.0001877,70.0013,228.5743,280.3841,79.7107,0.00029022,3.373e-05,0.0,0 STARLINK-5932,1 55943U 23037AF  23330.12866037  .00003373  00000-0  29022-3 0  9999,2 55943  70.0013 228.5743 0001877 280.3841  79.7107 14.98343231 39314,6950.152,96.106,573.322,570.712,0.0
55943.0,STARLINK-5932,PAYLOAD,2023-11-26 19:06:39,14.98319029,0.0002758,70.0017,226.8933,261.802,98.2826,-0.00017073,-2.129e-05,0.0,0 STARLINK-5932,1 55943U 23037AF  23330.79628622 -.00002129  00000-0 -17073-3 0  9991,2 55943  70.0017 226.8933 0002758 261.8020  98.2826 14.98319029 39415,6950.227,96.108,574.009,570.175,0.0
